[
    {
        "Altitude(m)": 555783.4726191994,
        "Argument of Periapsis(deg)": 0.006622991110713501,
        "Eccentricity": 0.0,
        "Inclination(deg)": 53.0,
        "Latitude(deg)": 34.24818386351246,
        "Longitude(deg)": 24.906263880491302,
        "Mean Anomaly(deg)": 44.637092867577586,
        "RAAN(deg)": 94.99014336852802,
        "Satellite Name": "Starlink Shell 1 420",
        "Satellite Number": 420,
        "Semi-Major Axis(m)": 6931778.249405717,
        "Time(s)": 190
    },
    {
        "Altitude(m)": 555864.6528163935,
        "Argument of Periapsis(deg)": 0.0069715695902247375,
        "Eccentricity": 0.0,
        "Inclination(deg)": 53.0,
        "Latitude(deg)": 34.67910509632067,
        "Longitude(deg)": 25.417956786352526,
        "Mean Anomaly(deg)": 45.2639240711343,
        "RAAN(deg)": 94.98962459845055,
        "Satellite Name": "Starlink Shell 1 420",
        "Satellite Number": 420,
        "Semi-Major Axis(m)": 6931778.249405717,
        "Time(s)": 200
    },
    {
        "Altitude(m)": 555946.3136816025,
        "Argument of Periapsis(deg)": 0.007320148069735974,
        "Eccentricity": 0.0,
        "Inclination(deg)": 53.0,
        "Latitude(deg)": 35.10746115896279,
        "Longitude(deg)": 25.935385588522454,
        "Mean Anomaly(deg)": 45.89075527469102,
        "RAAN(deg)": 94.98910582837307,
        "Satellite Name": "Starlink Shell 1 420",
        "Satellite Number": 420,
        "Semi-Major Axis(m)": 6931778.249405717,
        "Time(s)": 210
    },
    {
        "Altitude(m)": 556028.3994927637,
        "Argument of Periapsis(deg)": 0.007668726549247212,
        "Eccentricity": 0.0,
        "Inclination(deg)": 53.0,
        "Latitude(deg)": 35.53318495994779,
        "Longitude(deg)": 26.458667633729114,
        "Mean Anomaly(deg)": 46.51758647824774,
        "RAAN(deg)": 94.9885870582956,
        "Satellite Name": "Starlink Shell 1 420",
        "Satellite Number": 420,
        "Semi-Major Axis(m)": 6931778.249405717,
        "Time(s)": 220
    },
    {
        "Altitude(m)": 556110.8545199472,
        "Argument of Periapsis(deg)": 0.00801730502875845,
        "Eccentricity": 0.0,
        "Inclination(deg)": 53.0,
        "Latitude(deg)": 35.95620786259596,
        "Longitude(deg)": 26.987921018397326,
        "Mean Anomaly(deg)": 47.14441768180446,
        "RAAN(deg)": 94.98806828821813,
        "Satellite Name": "Starlink Shell 1 420",
        "Satellite Number": 420,
        "Semi-Major Axis(m)": 6931778.249405717,
        "Time(s)": 230
    },
    {
        "Altitude(m)": 556193.6230541234,
        "Argument of Periapsis(deg)": 0.008365883508269684,
        "Eccentricity": 0.0,
        "Inclination(deg)": 53.0,
        "Latitude(deg)": 36.3764596536709,
        "Longitude(deg)": 27.52326499949416,
        "Mean Anomaly(deg)": 47.77124888536118,
        "RAAN(deg)": 94.98754951814067,
        "Satellite Name": "Starlink Shell 1 420",
        "Satellite Number": 420,
        "Semi-Major Axis(m)": 6931778.249405717,
        "Time(s)": 240
    },
    {
        "Altitude(m)": 556276.649435857,
        "Argument of Periapsis(deg)": 0.008714461987780921,
        "Eccentricity": 0.0,
        "Inclination(deg)": 53.0,
        "Latitude(deg)": 36.79386851267898,
        "Longitude(deg)": 28.06481888283128,
        "Mean Anomaly(deg)": 48.39808008891786,
        "RAAN(deg)": 94.98703074806319,
        "Satellite Name": "Starlink Shell 1 420",
        "Satellite Number": 420,
        "Semi-Major Axis(m)": 6931778.249405717,
        "Time(s)": 250
    },
    {
        "Altitude(m)": 556359.8780839673,
        "Argument of Periapsis(deg)": 0.009063040467292158,
        "Eccentricity": 0.0,
        "Inclination(deg)": 53.0,
        "Latitude(deg)": 37.20836098198679,
        "Longitude(deg)": 28.61270241400398,
        "Mean Anomaly(deg)": 49.02491129247459,
        "RAAN(deg)": 94.98651197798571,
        "Satellite Name": "Starlink Shell 1 420",
        "Satellite Number": 420,
        "Semi-Major Axis(m)": 6931778.249405717,
        "Time(s)": 260
    },
    {
        "Altitude(m)": 556443.253524048,
        "Argument of Periapsis(deg)": 0.009411618946803396,
        "Eccentricity": 0.0,
        "Inclination(deg)": 53.0,
        "Latitude(deg)": 37.61986193791002,
        "Longitude(deg)": 29.167036158506967,
        "Mean Anomaly(deg)": 49.65174249603131,
        "RAAN(deg)": 94.98599320790824,
        "Satellite Name": "Starlink Shell 1 420",
        "Satellite Number": 420,
        "Semi-Major Axis(m)": 6931778.249405717,
        "Time(s)": 270
    },
    {
        "Altitude(m)": 556526.7204169394,
        "Argument of Periapsis(deg)": 0.009760197426314633,
        "Eccentricity": 0.0,
        "Inclination(deg)": 53.0,
        "Latitude(deg)": 38.02829456294068,
        "Longitude(deg)": 29.72794035755792,
        "Mean Anomaly(deg)": 50.27857369958802,
        "RAAN(deg)": 94.98547443783076,
        "Satellite Name": "Starlink Shell 1 420",
        "Satellite Number": 420,
        "Semi-Major Axis(m)": 6931778.249405717,
        "Time(s)": 280
    },
    {
        "Altitude(m)": 556610.2235870631,
        "Argument of Periapsis(deg)": 0.01010877590582587,
        "Eccentricity": 0.0,
        "Inclination(deg)": 53.0,
        "Latitude(deg)": 38.433580319300596,
        "Longitude(deg)": 30.295535284769294,
        "Mean Anomaly(deg)": 50.90540490314473,
        "RAAN(deg)": 94.9849556677533,
        "Satellite Name": "Starlink Shell 1 420",
        "Satellite Number": 420,
        "Semi-Major Axis(m)": 6931778.249405717,
        "Time(s)": 290
    },
    {
        "Altitude(m)": 556693.7080506488,
        "Argument of Periapsis(deg)": 0.010457354385337106,
        "Eccentricity": 0.0,
        "Inclination(deg)": 53.0,
        "Latitude(deg)": 38.83563892401496,
        "Longitude(deg)": 30.869941590182776,
        "Mean Anomaly(deg)": 51.532236106701454,
        "RAAN(deg)": 94.98443689767583,
        "Satellite Name": "Starlink Shell 1 420",
        "Satellite Number": 420,
        "Semi-Major Axis(m)": 6931778.249405717,
        "Time(s)": 300
    },
    {
        "Altitude(m)": 556777.1190437836,
        "Argument of Periapsis(deg)": 0.010805932864848343,
        "Eccentricity": 0.0,
        "Inclination(deg)": 53.0,
        "Latitude(deg)": 39.23438832571455,
        "Longitude(deg)": 31.45127911817569,
        "Mean Anomaly(deg)": 52.159067310258166,
        "RAAN(deg)": 94.98391812759836,
        "Satellite Name": "Starlink Shell 1 420",
        "Satellite Number": 420,
        "Semi-Major Axis(m)": 6931778.249405717,
        "Time(s)": 310
    },
    {
        "Altitude(m)": 556860.4020503591,
        "Argument of Periapsis(deg)": 0.01115451134435958,
        "Eccentricity": 0.0,
        "Inclination(deg)": 53.0,
        "Latitude(deg)": 39.62974468339755,
        "Longitude(deg)": 32.039667224373,
        "Mean Anomaly(deg)": 52.78589851381489,
        "RAAN(deg)": 94.98339935752087,
        "Satellite Name": "Starlink Shell 1 420",
        "Satellite Number": 420,
        "Semi-Major Axis(m)": 6931778.249405717,
        "Time(s)": 320
    },
    {
        "Altitude(m)": 556943.5028298231,
        "Argument of Periapsis(deg)": 0.011503089823870818,
        "Eccentricity": 0.0,
        "Inclination(deg)": 53.0,
        "Latitude(deg)": 40.02162234738923,
        "Longitude(deg)": 32.6352250780811,
        "Mean Anomaly(deg)": 53.41272971737161,
        "RAAN(deg)": 94.9828805874434,
        "Satellite Name": "Starlink Shell 1 420",
        "Satellite Number": 420,
        "Semi-Major Axis(m)": 6931778.249405717,
        "Time(s)": 330
    },
    {
        "Altitude(m)": 557026.3674447569,
        "Argument of Periapsis(deg)": 0.011851668303382053,
        "Eccentricity": 0.0,
        "Inclination(deg)": 53.0,
        "Latitude(deg)": 40.409933842754576,
        "Longitude(deg)": 33.23807043677242,
        "Mean Anomaly(deg)": 54.03956092092832,
        "RAAN(deg)": 94.98236181736593,
        "Satellite Name": "Starlink Shell 1 420",
        "Satellite Number": 420,
        "Semi-Major Axis(m)": 6931778.249405717,
        "Time(s)": 340
    },
    {
        "Altitude(m)": 557108.9422882609,
        "Argument of Periapsis(deg)": 0.012200246782893292,
        "Eccentricity": 0.0,
        "Inclination(deg)": 53.0,
        "Latitude(deg)": 40.794589855440435,
        "Longitude(deg)": 33.84831991778756,
        "Mean Anomaly(deg)": 54.666392124485036,
        "RAAN(deg)": 94.98184304728845,
        "Satellite Name": "Starlink Shell 1 420",
        "Satellite Number": 420,
        "Semi-Major Axis(m)": 6931778.249405717,
        "Time(s)": 350
    },
    {
        "Altitude(m)": 557191.1741111481,
        "Argument of Periapsis(deg)": 0.012548825262404526,
        "Eccentricity": 0.0,
        "Inclination(deg)": 53.0,
        "Latitude(deg)": 41.17549922143436,
        "Longitude(deg)": 34.46608925382493,
        "Mean Anomaly(deg)": 55.29322332804173,
        "RAAN(deg)": 94.98132427721099,
        "Satellite Name": "Starlink Shell 1 420",
        "Satellite Number": 420,
        "Semi-Major Axis(m)": 6931778.249405717,
        "Time(s)": 360
    },
    {
        "Altitude(m)": 557273.0100488905,
        "Argument of Periapsis(deg)": 0.012897403741915765,
        "Eccentricity": 0.0,
        "Inclination(deg)": 53.0,
        "Latitude(deg)": 41.55256891924258,
        "Longitude(deg)": 35.09149201881877,
        "Mean Anomaly(deg)": 55.92005453159846,
        "RAAN(deg)": 94.98080550713351,
        "Satellite Name": "Starlink Shell 1 420",
        "Satellite Number": 420,
        "Semi-Major Axis(m)": 6931778.249405717,
        "Time(s)": 370
    }
]